[{"OBJECT_NAME":"COSMOS 2251 DEB","OBJECT_ID":"1993-036AXK","EPOCH":"2026-02-01T21:35:17.653632","MEAN_MOTION":14.3795045,"ECCENTRICITY":0.00272136,"INCLINATION":74.0549,"RA_OF_ASC_NODE":205.1933,"ARG_OF_PERICENTER":246.7477,"MEAN_ANOMALY":264.2949,"EPHEMERIS_TYPE":0,"CLASSIFICATION_TYPE":"U","NORAD_CAT_ID":36048,"ELEMENT_SET_NO":999,"REV_AT_EPOCH":86237,"BSTAR":0.00026486397,"MEAN_MOTION_DOT":7.77e-6,"MEAN_MOTION_DDOT":0},{"OBJECT_NAME":"COSMOS 2251 DEB","OBJECT_ID":"1993-036AXL","EPOCH":"2026-01-31T17:12:17.220672","MEAN_MOTION":14.62873883,"ECCENTRICITY":0.00072071,"INCLINATION":74.0311,"RA_OF_ASC_NODE":23.3988,"ARG_OF_PERICENTER":96.8284,"MEAN_ANOMALY":263.3704,"EPHEMERIS_TYPE":0,"CLASSIFICATION_TYPE":"U","NORAD_CAT_ID":36049,"ELEMENT_SET_NO":999,"REV_AT_EPOCH":86095,"BSTAR":0.0010538412,"MEAN_MOTION_DOT":5.363e-5,"MEAN_MOTION_DDOT":0},{"OBJECT_NAME":"COSMOS 2251 DEB","OBJECT_ID":"1993-036AXM","EPOCH":"2026-01-31T20:52:59.096352","MEAN_MOTION":15.02170158,"ECCENTRICITY":0.00841192,"INCLINATION":74.031,"RA_OF_ASC_NODE":91.8529,"ARG_OF_PERICENTER":159.4556,"MEAN_ANOMALY":201.005,"EPHEMERIS_TYPE":0,"CLASSIFICATION_TYPE":"U","NORAD_CAT_ID":36050,"ELEMENT_SET_NO":999,"REV_AT_EPOCH":67787,"BSTAR":0.00042147766,"MEAN_MOTION_DOT":5.951e-5,"MEAN_MOTION_DDOT":0},{"OBJECT_NAME":"COSMOS 2251 DEB","OBJECT_ID":"1993-036AXQ","EPOCH":"2026-02-01T18:45:59.544288","MEAN_MOTION":14.58009213,"ECCENTRICITY":0.00339731,"INCLINATION":73.8699,"RA_OF_ASC_NODE":54.6849,"ARG_OF_PERICENTER":347.9291,"MEAN_ANOMALY":12.1054,"EPHEMERIS_TYPE":0,"CLASSIFICATION_TYPE":"U","NORAD_CAT_ID":36053,"ELEMENT_SET_NO":999,"REV_AT_EPOCH":88188,"BSTAR":0.0011989725,"MEAN_MOTION_DOT":5.527e-5,"MEAN_MOTION_DDOT":0},{"OBJECT_NAME":"COSMOS 2251 DEB","OBJECT_ID":"1993-036AXV","EPOCH":"2026-01-27T12:03:40.048704","MEAN_MOTION":14.59002907,"ECCENTRICITY":0.00437781,"INCLINATION":74.0233,"RA_OF_ASC_NODE":306.2218,"ARG_OF_PERICENTER":66.8754,"MEAN_ANOMALY":293.7016,"EPHEMERIS_TYPE":0,"CLASSIFICATION_TYPE":"U","NORAD_CAT_ID":36058,"ELEMENT_SET_NO":999,"REV_AT_EPOCH":66778,"BSTAR":0.0010319852,"MEAN_MOTION_DOT":4.884e-5,"MEAN_MOTION_DDOT":0},{"OBJECT_NAME":"COSMOS 2251 DEB","OBJECT_ID":"1993-036AXX","EPOCH":"2026-01-28T14:35:33.630432","MEAN_MOTION":14.42135349,"ECCENTRICITY":0.00158324,"INCLINATION":74.0298,"RA_OF_ASC_NODE":147.6448,"ARG_OF_PERICENTER":241.033,"MEAN_ANOMALY":118.9239,"EPHEMERIS_TYPE":0,"CLASSIFICATION_TYPE":"U","NORAD_CAT_ID":36060,"ELEMENT_SET_NO":999,"REV_AT_EPOCH":85685,"BSTAR":0.00063429249,"MEAN_MOTION_DOT":2.064e-5,"MEAN_MOTION_DDOT":0},{"OBJECT_NAME":"COSMOS 2251 DEB","OBJECT_ID":"1993-036AXY","EPOCH":"2026-01-28T08:32:09.580416","MEAN_MOTION":14.33814282,"ECCENTRICITY":0.00384382,"INCLINATION":74.0229,"RA_OF_ASC_NODE":274.4299,"ARG_OF_PERICENTER":350.0149,"MEAN_ANOMALY":10.0234,"EPHEMERIS_TYPE":0,"CLASSIFICATION_TYPE":"U","NORAD_CAT_ID":36061,"ELEMENT_SET_NO":999,"REV_AT_EPOCH":65772,"BSTAR":0.00043367267,"MEAN_MOTION_DOT":1.19e-5,"MEAN_MOTION_DDOT":0},{"OBJECT_NAME":"COSMOS 2251 DEB","OBJECT_ID":"1993-036AYL","EPOCH":"2026-01-29T19:56:10.594752","MEAN_MOTION":14.35028823,"ECCENTRICITY":0.00254207,"INCLINATION":74.029,"RA_OF_ASC_NODE":234.3951,"ARG_OF_PERICENTER":293.2595,"MEAN_ANOMALY":66.5881,"EPHEMERIS_TYPE":0,"CLASSIFICATION_TYPE":"U","NORAD_CAT_ID":36073,"ELEMENT_SET_NO":999,"REV_AT_EPOCH":70897,"BSTAR":0.00026320357,"MEAN_MOTION_DOT":7.26e-6,"MEAN_MOTION_DDOT":0},{"OBJECT_NAME":"COSMOS 2251 DEB","OBJECT_ID":"1993-036AYM","EPOCH":"2026-01-31T14:00:57.687264","MEAN_MOTION":14.44214591,"ECCENTRICITY":0.00436893,"INCLINATION":73.9926,"RA_OF_ASC_NODE":247.5406,"ARG_OF_PERICENTER":328.4916,"MEAN_ANOMALY":31.3625,"EPHEMERIS_TYPE":0,"CLASSIFICATION_TYPE":"U","NORAD_CAT_ID":36074,"ELEMENT_SET_NO":999,"REV_AT_EPOCH":86629,"BSTAR":0.0008581143,"MEAN_MOTION_DOT":2.954e-5,"MEAN_MOTION_DDOT":0},{"OBJECT_NAME":"COSMOS 2251 DEB","OBJECT_ID":"1993-036AYT","EPOCH":"2026-01-24T03:23:48.433056","MEAN_MOTION":14.33839815,"ECCENTRICITY":0.00881589,"INCLINATION":74.0651,"RA_OF_ASC_NODE":195.6543,"ARG_OF_PERICENTER":214.6758,"MEAN_ANOMALY":144.8628,"EPHEMERIS_TYPE":0,"CLASSIFICATION_TYPE":"U","NORAD_CAT_ID":36366,"ELEMENT_SET_NO":999,"REV_AT_EPOCH":86896,"BSTAR":0.0036547947,"MEAN_MOTION_DOT":0.00010614,"MEAN_MOTION_DDOT":0},{"OBJECT_NAME":"COSMOS 2251 DEB","OBJECT_ID":"1993-036AYU","EPOCH":"2026-01-31T01:23:18.068928","MEAN_MOTION":13.86620773,"ECCENTRICITY":0.02609566,"INCLINATION":74.1026,"RA_OF_ASC_NODE":148.2168,"ARG_OF_PERICENTER":209.9013,"MEAN_ANOMALY":148.6992,"EPHEMERIS_TYPE":0,"CLASSIFICATION_TYPE":"U","NORAD_CAT_ID":36367,"ELEMENT_SET_NO":999,"REV_AT_EPOCH":58213,"BSTAR":0.001597294,"MEAN_MOTION_DOT":2.405e-5,"MEAN_MOTION_DDOT":0},{"OBJECT_NAME":"COSMOS 2251 DEB","OBJECT_ID":"1993-036AYW","EPOCH":"2026-01-29T12:34:48.008064","MEAN_MOTION":14.74806057,"ECCENTRICITY":0.00106702,"INCLINATION":74.0335,"RA_OF_ASC_NODE":337.4527,"ARG_OF_PERICENTER":35.3497,"MEAN_ANOMALY":324.8382,"EPHEMERIS_TYPE":0,"CLASSIFICATION_TYPE":"U","NORAD_CAT_ID":36369,"ELEMENT_SET_NO":999,"REV_AT_EPOCH":86626,"BSTAR":0.002857189,"MEAN_MOTION_DOT":0.00019177,"MEAN_MOTION_DDOT":0},{"OBJECT_NAME":"COSMOS 2251 DEB","OBJECT_ID":"1993-036AYY","EPOCH":"2026-02-01T08:24:20.754144","MEAN_MOTION":14.72083387,"ECCENTRICITY":0.0005263,"INCLINATION":74.0123,"RA_OF_ASC_NODE":63.0675,"ARG_OF_PERICENTER":76.1318,"MEAN_ANOMALY":284.0439,"EPHEMERIS_TYPE":0,"CLASSIFICATION_TYPE":"U","NORAD_CAT_ID":36371,"ELEMENT_SET_NO":999,"REV_AT_EPOCH":72189,"BSTAR":0.0014200724,"MEAN_MOTION_DOT":8.914e-5,"MEAN_MOTION_DDOT":0},{"OBJECT_NAME":"COSMOS 2251 DEB","OBJECT_ID":"1993-036AZG","EPOCH":"2026-01-30T18:35:06.456192","MEAN_MOTION":14.36179941,"ECCENTRICITY":0.00465861,"INCLINATION":74.0102,"RA_OF_ASC_NODE":216.654,"ARG_OF_PERICENTER":333.3972,"MEAN_ANOMALY":41.9407,"EPHEMERIS_TYPE":0,"CLASSIFICATION_TYPE":"U","NORAD_CAT_ID":36379,"ELEMENT_SET_NO":999,"REV_AT_EPOCH":65532,"BSTAR":0.00031262723,"MEAN_MOTION_DOT":8.96e-6,"MEAN_MOTION_DDOT":0},{"OBJECT_NAME":"COSMOS 2251 DEB","OBJECT_ID":"1993-036AZN","EPOCH":"2026-02-01T01:23:56.309568","MEAN_MOTION":14.74074299,"ECCENTRICITY":0.0139522,"INCLINATION":73.9674,"RA_OF_ASC_NODE":56.0391,"ARG_OF_PERICENTER":219.9377,"MEAN_ANOMALY":139.147,"EPHEMERIS_TYPE":0,"CLASSIFICATION_TYPE":"U","NORAD_CAT_ID":36385,"ELEMENT_SET_NO":999,"REV_AT_EPOCH":85843,"BSTAR":0.0011621405,"MEAN_MOTION_DOT":8.924e-5,"MEAN_MOTION_DDOT":0},{"OBJECT_NAME":"COSMOS 2251 DEB","OBJECT_ID":"1993-036AZT","EPOCH":"2026-02-01T19:12:07.180704","MEAN_MOTION":14.369581,"ECCENTRICITY":0.00193384,"INCLINATION":74.0369,"RA_OF_ASC_NODE":181.6116,"ARG_OF_PERICENTER":261.6314,"MEAN_ANOMALY":168.3179,"EPHEMERIS_TYPE":0,"CLASSIFICATION_TYPE":"U","NORAD_CAT_ID":36420,"ELEMENT_SET_NO":999,"REV_AT_EPOCH":85770,"BSTAR":0.00017596898,"MEAN_MOTION_DOT":4.96e-6,"MEAN_MOTION_DDOT":0},{"OBJECT_NAME":"COSMOS 2251 DEB","OBJECT_ID":"1993-036BAD","EPOCH":"2026-01-11T09:18:01.003968","MEAN_MOTION":14.27877175,"ECCENTRICITY":0.00967117,"INCLINATION":74.0042,"RA_OF_ASC_NODE":54.7082,"ARG_OF_PERICENTER":198.6876,"MEAN_ANOMALY":161.0714,"EPHEMERIS_TYPE":0,"CLASSIFICATION_TYPE":"U","NORAD_CAT_ID":36430,"ELEMENT_SET_NO":999,"REV_AT_EPOCH":64980,"BSTAR":0.0003571313,"MEAN_MOTION_DOT":9.03e-6,"MEAN_MOTION_DDOT":0},{"OBJECT_NAME":"COSMOS 2251 DEB","OBJECT_ID":"1993-036BAL","EPOCH":"2026-02-01T09:47:45.588192","MEAN_MOTION":14.71885372,"ECCENTRICITY":0.00212003,"INCLINATION":73.9428,"RA_OF_ASC_NODE":295.001,"ARG_OF_PERICENTER":154.5657,"MEAN_ANOMALY":205.6563,"EPHEMERIS_TYPE":0,"CLASSIFICATION_TYPE":"U","NORAD_CAT_ID":36437,"ELEMENT_SET_NO":999,"REV_AT_EPOCH":66796,"BSTAR":0.0011984839,"MEAN_MOTION_DOT":7.505e-5,"MEAN_MOTION_DDOT":0},{"OBJECT_NAME":"COSMOS 2251 DEB","OBJECT_ID":"1993-036BAN","EPOCH":"2026-02-01T10:52:35.357664","MEAN_MOTION":13.4806151,"ECCENTRICITY":0.04280145,"INCLINATION":73.9708,"RA_OF_ASC_NODE":315.7559,"ARG_OF_PERICENTER":277.9669,"MEAN_ANOMALY":77.3083,"EPHEMERIS_TYPE":0,"CLASSIFICATION_TYPE":"U","NORAD_CAT_ID":36439,"ELEMENT_SET_NO":999,"REV_AT_EPOCH":59296,"BSTAR":0.0011695504,"MEAN_MOTION_DOT":1.243e-5,"MEAN_MOTION_DDOT":0},{"OBJECT_NAME":"COSMOS 2251 DEB","OBJECT_ID":"1993-036BAQ","EPOCH":"2026-02-01T20:03:07.830720","MEAN_MOTION":15.07940937,"ECCENTRICITY":0.01080979,"INCLINATION":73.8312,"RA_OF_ASC_NODE":243.4033,"ARG_OF_PERICENTER":331.5098,"MEAN_ANOMALY":28.0207,"EPHEMERIS_TYPE":0,"CLASSIFICATION_TYPE":"U","NORAD_CAT_ID":36441,"ELEMENT_SET_NO":999,"REV_AT_EPOCH":87735,"BSTAR":0.00033747224,"MEAN_MOTION_DOT":5.889e-5,"MEAN_MOTION_DDOT":0},{"OBJECT_NAME":"COSMOS 2251 DEB","OBJECT_ID":"1993-036BAR","EPOCH":"2026-01-19T02:06:48.686400","MEAN_MOTION":15.50945818,"ECCENTRICITY":0.00100653,"INCLINATION":73.9423,"RA_OF_ASC_NODE":318.2442,"ARG_OF_PERICENTER":148.9893,"MEAN_ANOMALY":211.1916,"EPHEMERIS_TYPE":0,"CLASSIFICATION_TYPE":"U","NORAD_CAT_ID":36442,"ELEMENT_SET_NO":999,"REV_AT_EPOCH":86490,"BSTAR":0.0077317301,"MEAN_MOTION_DOT":0.00477107,"MEAN_MOTION_DDOT":0},{"OBJECT_NAME":"COSMOS 2251 DEB","OBJECT_ID":"1993-036BBA","EPOCH":"2026-02-01T21:55:25.440960","MEAN_MOTION":14.18989903,"ECCENTRICITY":0.01838578,"INCLINATION":73.9495,"RA_OF_ASC_NODE":243.3498,"ARG_OF_PERICENTER":55.8392,"MEAN_ANOMALY":306.0031,"EPHEMERIS_TYPE":0,"CLASSIFICATION_TYPE":"U","NORAD_CAT_ID":36451,"ELEMENT_SET_NO":999,"REV_AT_EPOCH":84951,"BSTAR":0.00074189249,"MEAN_MOTION_DOT":1.807e-5,"MEAN_MOTION_DDOT":0},{"OBJECT_NAME":"COSMOS 2251 DEB","OBJECT_ID":"1993-036BBC","EPOCH":"2026-01-28T12:44:11.164992","MEAN_MOTION":14.53028562,"ECCENTRICITY":0.00727539,"INCLINATION":73.9251,"RA_OF_ASC_NODE":63.5173,"ARG_OF_PERICENTER":315.5007,"MEAN_ANOMALY":195.3392,"EPHEMERIS_TYPE":0,"CLASSIFICATION_TYPE":"U","NORAD_CAT_ID":36453,"ELEMENT_SET_NO":999,"REV_AT_EPOCH":85147,"BSTAR":0.0014725213,"MEAN_MOTION_DOT":6.271e-5,"MEAN_MOTION_DDOT":0}]
